ISS (ZARYA)
1 25544U 98067A   24001.00000000  .00016717  00000+0  10270-3 0  9003
2 25544  51.6421  10.3493 0006703  88.3949  31.2568 15.50015354  9008
IRIDIUM 33 DEB
1 33772U 97051C   24001.00000000  .00001234  00000+0  30000-3 0  9001
2 33772  86.3950 120.4500 0010000  90.0000 270.0000 14.34000000  9000
COSMOS 2251 DEB
1 34427U 93036SX  24001.00000000  .00002000  00000+0  40000-3 0  9002
2 34427  74.0400 200.1000 0015000  60.0000 300.0000 14.40000000  9003
HUBBLE SPACE TELESCOPE
1 20580U 90037B   24001.00000000  .00000806  00000+0  35060-4 0  9004
2 20580  28.4691  90.3225 0002946  74.7832 285.3088 15.09271153  9005
NOAA 15
1 25338U 98030A   24001.00000000  .00000117  00000+0  79830-4 0  9007
2 25338  98.7077  55.5146 0011185  98.9137 261.3310 14.25905472  9002
TERRA
1 25994U 99068A   24001.00000000  .00000408  00000+0  10169-3 0  9006
2 25994  98.2092  72.2449 0001393  93.9952 266.1393 14.57109968  9005
AQUA
1 27424U 02022A   24001.00000000  .00000631  00000+0  14070-3 0  9009
2 27424  98.3198 305.0449 0001294  75.1256 285.0128 14.57111426  9007
LANDSAT 8
1 39084U 13008A   24001.00000000  .00000406  00000+0  10563-3 0  9009
2 39084  98.2112  74.9356 0001217  90.3149 269.8196 14.57109315  9002
SENTINEL-2A
1 40697U 15028A   24001.00000000  .00000161  00000+0  74850-4 0  9005
2 40697  98.5682  76.0035 0001134  86.8744 273.2583 14.30815284  9001
STARLINK-1007
1 44713U 19074A   24001.00000000  .00002000  00000+0  15000-3 0  9002
2 44713  53.0000  20.0000 0001000  90.0000 270.0000 15.06400000  9001
